BEIDOU-2 IGSO-5         
1 37948U 11073A   26158.80025013 -.00000160  00000+0  00000+0 0  9990
2 37948  47.6966 271.6638 0113614 221.6822 142.6954  1.00275188 53048
LUCH-5A                 
1 37951U 11074B   26157.59434360 -.00000037  00000+0  00000+0 0  9992
2 37951   8.7265  73.9638 0002402  12.4500 189.5697  1.00269862 52940
BEIDOU-2 G5             
1 38091U 12008A   26158.78497951  .00000072  00000+0  00000+0 0  9991
2 38091   3.5497  69.7538 0009436 276.1352 251.5748  1.00270094 52278
BEIDOU-2 M3             
1 38250U 12018A   26157.44952456 -.00000054  00000+0  00000+0 0  9998
2 38250  55.7678 305.2371 0019926 274.9338  84.8288  1.86230163 95745
BEIDOU-2 M4             
1 38251U 12018B   26157.91876793 -.00000054  00000+0  00000+0 0  9990
2 38251  55.6675 304.4358 0011112 277.6317  82.2331  1.86229779 95757
SES-5                   
1 38652U 12036A   26158.27526051  .00000048  00000+0  00000+0 0  9996
2 38652   0.0512 308.1088 0002155 128.3799 283.2716  1.00273741 44354
BEIDOU-2 M6             
1 38775U 12050B   26158.16551005 -.00000039  00000+0  00000+0 0  9994
2 38775  56.5356  63.2259 0013887 355.8219   4.1945  1.86230975 93128
GSAT-10                 
1 38779U 12051B   26158.14817360 -.00000151  00000+0  00000+0 0  9991
2 38779   0.0171 262.4199 0008003 186.5141 302.9972  1.00271795 49990
NAVSTAR 67 (USA 239)    
1 38833U 12053A   26158.34489778  .00000096  00000+0  00000+0 0  9991
2 38833  53.5842 144.0025 0179751  65.6197 296.2414  2.00567343 99246
GSAT0103 (GALILEO-FM3)  
1 38857U 12055A   26156.15727767  .00000018  00000+0  00000+0 0  9993
2 38857  55.7989 101.8756 0005166 302.6849  57.2312  1.70473498 84807
BEIDOU-2 G6             
1 38953U 12059A   26158.87316484 -.00000161  00000+0  00000+0 0  9995
2 38953   4.3971  73.6209 0010346 324.5469 256.4385  1.00274830 49818
LUCH-5B                 
1 38977U 12061A   26157.98591054 -.00000126  00000+0  00000+0 0  9994
2 38977  10.4589  49.9805 0001756 137.0640  46.9761  1.00274188 49500
COSMOS 2485 [GLONASS-M] 
1 39155U 13019A   26157.11703028 -.00000007  00000+0  00000+0 0  9996
2 39155  65.4139  73.9758 0023482 234.9271 124.8751  2.13103501102040
NAVSTAR 68 (USA 242)    
1 39166U 13023A   26158.21158304 -.00000031  00000+0  00000+0 0  9993
2 39166  54.5121 269.3802 0141608  50.9995 310.2743  2.00563548 95683
IRNSS-1A                
1 39199U 13034A   26142.85947303  .00000059  00000+0  00000+0 0  9998
2 39199  35.6649  64.2334 0016618 185.3754 355.4646  1.00280263 47111
NAVSTAR 69 (USA 248)    
1 39533U 14008A   26158.21312666  .00000098  00000+0  00000+0 0  9990
2 39533  53.6531 149.7265 0084235 231.1118 128.1377  2.00559182 89481
ASTRA 5B                
1 39617U 14011B   26158.70668123  .00000152  00000+0  00000+0 0  9994
2 39617   0.0573 317.3389 0002144 106.8117 109.8673  1.00269822 44576
COSMOS 2492 [GLONASS-M] 
1 39620U 14012A   26158.01443692 -.00000028  00000+0  00000+0 0  9998
2 39620  65.3041 314.2816 0010535 326.6217  33.3091  2.13103539 95029
IRNSS-1B                
1 39635U 14017A   26139.86086405  .00000103  00000+0  00000+0 0  9999
2 39635  28.9733 240.8911 0024226 185.2284 176.5740  1.00280229 44519
LUCH-5V                 
1 39727U 14023A   26158.86622323 -.00000253  00000+0  00000+0 0  9991
2 39727   5.1098  69.8434 0002829  30.4700 202.4832  1.00267859 44267
NAVSTAR 70 (USA 251)    
1 39741U 14026A   26157.98996211 -.00000059  00000+0  00000+0 0  9996
2 39741  56.5034 331.9145 0038255 326.7272  33.0399  2.00561785 88330
COSMOS 2500 [GLONASS-M] 
1 40001U 14032A   26156.30730628 -.00000032  00000+0  00000+0 0  9998
2 40001  65.2399 314.0875 0006921 182.6987 177.2913  2.13106228 93207
NAVSTAR 71 (USA 256)    
1 40105U 14045A   26158.08161683  .00000008  00000+0  00000+0 0  9995
2 40105  55.3469  88.8676 0032896 118.3875 241.9399  2.00557768 85873
GSAT0201 (GALILEO 5)    
1 40128U 14050A   26158.17620697 -.00000050  00000+0  00000+0 0  9999
2 40128  48.8866 273.8470 1673050 179.0044 181.4203  1.85520078 78139
GSAT0202 (GALILEO 6)    
1 40129U 14050B   26158.43178242 -.00000050  00000+0  00000+0 0  9993
2 40129  48.9030 272.9219 1674354 179.7431 180.3996  1.85520607 80307
IRNSS-1C                
1 40269U 14061A   26158.78983286 -.00000146  00000+0  00000+0 0  9996
2 40269   6.4947  89.1062 0022624   1.3763 173.0677  1.00270814 42599
NAVSTAR 72 (USA 258)    
1 40294U 14068A   26157.95235535 -.00000066  00000+0  00000+0 0  9997
2 40294  56.9806  31.3491 0066821  70.2149 290.5590  2.00575638 85001
COSMOS 2501 [GLONASS-K] 
1 40315U 14075A   26158.44627953  .00000089  00000+0  00000+0 0  9997
2 40315  63.6157 190.7092 0022453 212.1343 147.7942  2.13101441 89641
NAVSTAR 73 (USA 260)    
1 40534U 15013A   26158.09036369  .00000057  00000+0  00000+0 0  9994
2 40534  53.1686 204.5953 0109348  40.1244 320.7540  2.00552172 81627
GSAT0203 (GALILEO 7)    
1 40544U 15017A   26156.48117556 -.00000068  00000+0  00000+0 0  9991
2 40544  56.7910 341.9146 0002094 282.9852  77.0035  1.70476258 69003
GSAT0204 (GALILEO 8)    
1 40545U 15017B   26156.15035755 -.00000069  00000+0  00000+0 0  9997
2 40545  56.7982 341.9422 0001822 253.1460 106.8459  1.70475724 32045
